IRIDIUM 124             
1 42810U 17039H   24160.47106405  .00000817  00000+0  23680-3 0  9992
2 42810  86.4511 239.0667 0002502 104.4135 255.7344 14.43281461368564
IRIDIUM 128             
1 42811U 17039J   24160.50007323  .00000032  00000+0  44211-5 0  9990
2 42811  86.3960 333.8636 0002047  95.8682 264.2747 14.34216333364109
IRIDIUM 100             
1 42956U 17061B   24160.52543409  .00000503  00000+0  17251-3 0  9992
2 42956  86.3959 333.8883 0002018  87.7067 272.4360 14.34221142348902
IRIDIUM 122             
1 42957U 17061C   24160.49372806 -.00000045  00000+0 -23141-4 0  9999
2 42957  86.3956 333.9000 0001954  90.2309 269.9111 14.34215215348907
IRIDIUM 129             
1 42958U 17061D   24160.51910243  .00000089  00000+0  24727-4 0  9993
2 42958  86.3960 333.9485 0001925  89.5487 270.5929 14.34217054348926
